{
  "norad_id": 57504,
  "name": "STARLINK-30213",
  "history": [
    {
      "epoch": "2026-03-28T18:51:25.796736Z",
      "apogee_km": 486.6613967312105,
      "perigee_km": 484.4521109857187,
      "latitude_deg": -2.1067516776276224e-05,
      "longitude_deg": 159.32211897143335,
      "height_km": 485.2553135634451,
      "semi_major_axis_km": 6863.693753858464,
      "eccentricity": 0.00016094,
      "inclination_deg": 42.9998,
      "raan_deg": 268.3808,
      "arg_perigee_deg": 274.069,
      "mean_anomaly_deg": 85.9977,
      "mean_motion_rev_day": 15.26742922
    },
    {
      "epoch": "2026-03-30T03:49:47.496864Z",
      "apogee_km": 486.60455323663336,
      "perigee_km": 484.47132306585627,
      "latitude_deg": -1.3632120800250986e-05,
      "longitude_deg": 15.628369864815243,
      "height_km": 485.20095817314893,
      "semi_major_axis_km": 6863.6749381512445,
      "eccentricity": 0.0001554,
      "inclination_deg": 42.9995,
      "raan_deg": 260.6316,
      "arg_perigee_deg": 276.1271,
      "mean_anomaly_deg": 83.9403,
      "mean_motion_rev_day": 15.267492
    },
    {
      "epoch": "2026-03-30T19:31:53.030208Z",
      "apogee_km": 486.14294014531515,
      "perigee_km": 484.9964265809267,
      "latitude_deg": 2.8689697820268115e-05,
      "longitude_deg": 135.76972094379832,
      "height_km": 485.144874371928,
      "semi_major_axis_km": 6863.706683363121,
      "eccentricity": 8.352e-05,
      "inclination_deg": 42.9985,
      "raan_deg": 256.9408,
      "arg_perigee_deg": 290.5166,
      "mean_anomaly_deg": 69.5596,
      "mean_motion_rev_day": 15.26738608
    },
    {
      "epoch": "2026-03-31T19:04:59.657088Z",
      "apogee_km": 486.47441161644656,
      "perigee_km": 484.5635697886346,
      "latitude_deg": 1.5606294792384926e-05,
      "longitude_deg": 135.99015658880788,
      "height_km": 485.29439190074544,
      "semi_major_axis_km": 6863.65599070254,
      "eccentricity": 0.0001392,
      "inclination_deg": 42.9997,
      "raan_deg": 251.4061,
      "arg_perigee_deg": 270.0804,
      "mean_anomaly_deg": 89.9888,
      "mean_motion_rev_day": 15.26755522
    },
    {
      "epoch": "2026-04-01T17:03:53.519040Z",
      "apogee_km": 486.43952770833766,
      "perigee_km": 484.5410484004624,
      "latitude_deg": 1.2857822391708575e-05,
      "longitude_deg": 160.1964766247189,
      "height_km": 485.26422574054146,
      "semi_major_axis_km": 6863.6272880544,
      "eccentricity": 0.0001383,
      "inclination_deg": 43.0,
      "raan_deg": 246.2396,
      "arg_perigee_deg": 270.1708,
      "mean_anomaly_deg": 89.8985,
      "mean_motion_rev_day": 15.26765099
    },
    {
      "epoch": "2026-04-02T18:11:13.756704Z",
      "apogee_km": 486.4266919146439,
      "perigee_km": 484.66958851874915,
      "latitude_deg": 2.734346738331487e-05,
      "longitude_deg": 136.4273336406414,
      "height_km": 485.2223685228035,
      "semi_major_axis_km": 6863.685140216697,
      "eccentricity": 0.000128,
      "inclination_deg": 43.0007,
      "raan_deg": 240.3365,
      "arg_perigee_deg": 276.7024,
      "mean_anomaly_deg": 83.3682,
      "mean_motion_rev_day": 15.26745796
    },
    {
      "epoch": "2026-04-02T18:11:13.757568Z",
      "apogee_km": 486.4266919146439,
      "perigee_km": 484.66958851874915,
      "latitude_deg": 2.734043289861554e-05,
      "longitude_deg": 136.4273300275529,
      "height_km": 485.22236852312784,
      "semi_major_axis_km": 6863.685140216697,
      "eccentricity": 0.000128,
      "inclination_deg": 43.0007,
      "raan_deg": 240.3365,
      "arg_perigee_deg": 276.7024,
      "mean_anomaly_deg": 83.3682,
      "mean_motion_rev_day": 15.26745796
    },
    {
      "epoch": "2026-04-03T17:44:21.994080Z",
      "apogee_km": 486.94704199770786,
      "perigee_km": 484.36488308520074,
      "latitude_deg": 9.461302379925887e-06,
      "longitude_deg": 136.63893417921662,
      "height_km": 485.3912905151285,
      "semi_major_axis_km": 6863.7929625414545,
      "eccentricity": 0.0001881,
      "inclination_deg": 43.0019,
      "raan_deg": 234.7997,
      "arg_perigee_deg": 271.8668,
      "mean_anomaly_deg": 88.1968,
      "mean_motion_rev_day": 15.26709821
    },
    {
      "epoch": "2026-04-04T17:17:29.283648Z",
      "apogee_km": 486.396315714559,
      "perigee_km": 484.6392200939763,
      "latitude_deg": 1.81393042043227e-05,
      "longitude_deg": 136.85672223806486,
      "height_km": 485.4738054041786,
      "semi_major_axis_km": 6863.654767904268,
      "eccentricity": 0.000128,
      "inclination_deg": 42.9998,
      "raan_deg": 229.2651,
      "arg_perigee_deg": 258.2155,
      "mean_anomaly_deg": 101.8553,
      "mean_motion_rev_day": 15.2675593
    },
    {
      "epoch": "2026-04-05T15:16:24.842496Z",
      "apogee_km": 486.45817146171976,
      "perigee_km": 484.6848637291141,
      "latitude_deg": -2.2068843677015155e-05,
      "longitude_deg": 161.05840999814578,
      "height_km": 485.6684145734653,
      "semi_major_axis_km": 6863.708517595416,
      "eccentricity": 0.00012918,
      "inclination_deg": 43.0009,
      "raan_deg": 224.1011,
      "arg_perigee_deg": 248.8289,
      "mean_anomaly_deg": 111.2424,
      "mean_motion_rev_day": 15.26737996
    },
    {
      "epoch": "2026-04-05T18:24:49.917888Z",
      "apogee_km": 486.4880654214785,
      "perigee_km": 484.65408262409983,
      "latitude_deg": 3.632765138150787e-05,
      "longitude_deg": 113.08682375206426,
      "height_km": 485.66090705910403,
      "semi_major_axis_km": 6863.708074022788,
      "eccentricity": 0.0001336,
      "inclination_deg": 43.0014,
      "raan_deg": 223.3629,
      "arg_perigee_deg": 250.0378,
      "mean_anomaly_deg": 110.033,
      "mean_motion_rev_day": 15.26738144
    }
  ]
}